NORAD_CAT_ID,OBJECT_NAME,OBJECT_TYPE,EPOCH,MEAN_MOTION,ECCENTRICITY,INCLINATION,RA_OF_ASC_NODE,ARG_OF_PERICENTER,MEAN_ANOMALY,BSTAR,MEAN_MOTION_DOT,MEAN_MOTION_DDOT,TLE_LINE0,TLE_LINE1,TLE_LINE2,SEMIMAJOR_AXIS,PERIOD,APOGEE,PERIGEE,DECAYED
52451.0,STARLINK-3870,PAYLOAD,2022-07-12 14:00:01,15.08858367,0.0001594,53.2129,307.1333,56.5736,303.047,-0.00029934,-5.051e-05,0.0,0 STARLINK-3870,1 52451U 22049A   22193.58334491 -.00005051  00000-0 -29934-3 0  9991,2 52451  53.2129 307.1333 0001594  56.5736 303.0470 15.08858367 10562,6917.824000000001,95.436,540.7919999999998,538.587,0.0
52451.0,STARLINK-3870,PAYLOAD,2022-07-12 22:00:00,15.08890175,0.0001618,53.2129,305.6364,54.4165,316.8177,-0.0039991,-0.00063461,0.0,0 STARLINK-3870,1 52451U 22049A   22193.91667824 -.00063461  00000-0 -39991-2 0  9999,2 52451  53.2129 305.6364 0001618  54.4165 316.8177 15.08890175  1300,6917.727,95.434,540.711,538.4730000000002,0.0
52451.0,STARLINK-3870,PAYLOAD,2022-07-13 14:00:01,15.08846241,0.0001774,53.2133,302.6439,58.8618,335.6047,-0.0020688,-0.00033068,0.0,0 STARLINK-3870,1 52451U 22049A   22194.58334491 -.00033068  00000-0 -20688-2 0  9997,2 52451  53.2133 302.6439 0001774  58.8618 335.6047 15.08846241  1309,6917.861,95.437,540.9540000000002,538.499,0.0
52451.0,STARLINK-3870,PAYLOAD,2022-07-13 22:00:00,15.08849043,0.0001643,53.2133,301.147,55.8564,350.1964,-0.0047613,-0.00075292,0.0,0 STARLINK-3870,1 52451U 22049A   22194.91667824 -.00075292  00000-0 -47613-2 0  9995,2 52451  53.2133 301.1470 0001643  55.8564 350.1964 15.08849043 10763,6917.853,95.437,540.854,538.581,0.0
52451.0,STARLINK-3870,PAYLOAD,2022-07-14 14:00:01,15.08804648,0.0001623,53.2134,298.1549,55.022,14.15,-0.00025754,-4.38e-05,0.0,0 STARLINK-3870,1 52451U 22049A   22195.58334491 -.00004380  00000-0 -25754-3 0  9993,2 52451  53.2134 298.1549 0001623  55.0220  14.1500 15.08804648 10861,6917.988,95.44,540.976,538.731,0.0
52451.0,STARLINK-3870,PAYLOAD,2022-07-14 22:00:00,15.08829977,0.0001554,53.2132,296.6579,53.96100000000001,26.7633,-0.0013592,-0.00021849,0.0,0 STARLINK-3870,1 52451U 22049A   22195.91667824 -.00021849  00000-0 -13592-2 0  9994,2 52451  53.2132 296.6579 0001554  53.9610  26.7633 15.08829977  1305,6917.911,95.438,540.851,538.701,0.0
52451.0,STARLINK-3870,PAYLOAD,2022-07-15 06:00:00,15.0881272,0.000146,53.2134,295.1605,61.7203,30.5753,0.0023177,0.00036763,0.0,0 STARLINK-3870,1 52451U 22049A   22196.25001157  .00036763  00000-0  23177-2 0  9992,2 52451  53.2134 295.1605 0001460  61.7203  30.5753 15.08812720 10968,6917.964,95.439,540.839,538.819,0.0
52451.0,STARLINK-3870,PAYLOAD,2022-07-15 14:00:01,15.08831613,0.0001593,53.2132,293.6659,54.4457,49.4306,0.00016089,2.273e-05,0.0,0 STARLINK-3870,1 52451U 22049A   22196.58334491  .00002273  00000-0  16089-3 0  9992,2 52451  53.2132 293.6659 0001593  54.4457  49.4306 15.08831613  1308,6917.906,95.438,540.873,538.669,0.0
52451.0,STARLINK-3870,PAYLOAD,2022-07-15 22:00:00,15.08858788,0.0001517,53.2127,292.1687,54.4158,61.0483,-0.0013893,-0.00022342,0.0,0 STARLINK-3870,1 52451U 22049A   22196.91667824 -.00022342  00000-0 -13893-2 0  9998,2 52451  53.2127 292.1687 0001517  54.4158  61.0483 15.08858788 11063,6917.823,95.436,540.737,538.639,0.0
52451.0,STARLINK-3870,PAYLOAD,2022-07-16 14:00:01,15.08870048,0.0001512,53.2132,289.1766,52.7584,85.9362,-0.0023108,-0.00036907,0.0,0 STARLINK-3870,1 52451U 22049A   22197.58334491 -.00036907  00000-0 -23108-2 0  9995,2 52451  53.2132 289.1766 0001512  52.7584  85.9362 15.08870048 11178,6917.7890000000025,95.436,540.7,538.6080000000002,0.0
52451.0,STARLINK-3870,PAYLOAD,2022-07-16 22:00:00,15.08867025,0.0001395999999999,53.2133,287.6791,52.3124,98.0013,-0.0011138,-0.00017983,0.0,0 STARLINK-3870,1 52451U 22049A   22197.91667824 -.00017983  00000-0 -11138-2 0  9994,2 52451  53.2133 287.6791 0001396  52.3124  98.0013 15.08867025  1309,6917.7980000000025,95.436,540.629,538.697,0.0
52451.0,STARLINK-3870,PAYLOAD,2022-07-17 06:00:00,15.08875639,0.0001395999999999,53.214,286.1818,60.5521,101.3774,-0.0015024,-0.00024142,0.0,0 STARLINK-3870,1 52451U 22049A   22198.25001157 -.00024142  00000-0 -15024-2 0  9996,2 52451  53.2140 286.1818 0001396  60.5521 101.3774 15.08875639 11272,6917.771,95.435,540.602,538.6709999999998,0.0
52451.0,STARLINK-3870,PAYLOAD,2022-07-17 14:00:01,15.08846943,0.0001611,53.2137,284.6872,54.2439,119.3029,-0.0014282,-0.0002295,0.0,0 STARLINK-3870,1 52451U 22049A   22198.58334491 -.00022950  00000-0 -14282-2 0  9992,2 52451  53.2137 284.6872 0001611  54.2439 119.3029 15.08846943  1300,6917.859,95.437,540.839,538.61,0.0
52451.0,STARLINK-3870,PAYLOAD,2022-07-17 22:00:00,15.08859359,0.0001545,53.2148,283.188,54.0918,131.0468,-0.0057947,-0.00091391,0.0,0 STARLINK-3870,1 52451U 22049A   22198.91667824 -.00091391  00000-0 -57947-2 0  9998,2 52451  53.2148 283.1880 0001545  54.0918 131.0468 15.08859359 11372,6917.821,95.436,540.755,538.617,0.0
52451.0,STARLINK-3870,PAYLOAD,2022-07-18 14:00:01,15.08794793,0.0001594,53.2131,280.1977,52.8973,155.3709,0.0016253,0.00025641,0.0,0 STARLINK-3870,1 52451U 22049A   22199.58334491  .00025641  00000-0  16253-2 0  9991,2 52451  53.2131 280.1977 0001594  52.8973 155.3709 15.08794793  1308,6918.019,95.44,540.986,538.781,0.0
52451.0,STARLINK-3870,PAYLOAD,2022-07-18 16:00:00,15.08786969,0.0001591,53.2129,279.8237,51.4132,249.7452,0.0031995,0.00050926,0.0,0 STARLINK-3870,1 52451U 22049A   22199.66667824  .00050926  00000-0  31995-2 0  9993,2 52451  53.2129 279.8237 0001591  51.4132 249.7452 15.08786969 11487,6918.042,95.441,541.008,538.807,0.0
52451.0,STARLINK-3870,PAYLOAD,2022-07-18 22:00:00,15.08827243,0.00015,53.2129,278.6998,54.4208,165.3976,-0.001437,-0.00023077,0.0,0 STARLINK-3870,1 52451U 22049A   22199.91667824 -.00023077  00000-0 -14370-2 0  9998,2 52451  53.2129 278.6998 0001500  54.4208 165.3976 15.08827243  1300,6917.919,95.438,540.822,538.747,0.0
52451.0,STARLINK-3870,PAYLOAD,2022-07-19 14:00:01,15.08818464,0.000167,53.213,275.7081,51.3863,191.5988,0.002225,0.0003528,0.0,0 STARLINK-3870,1 52451U 22049A   22200.58334491  .00035280  00000-0  22250-2 0  9998,2 52451  53.2130 275.7081 0001670  51.3863 191.5988 15.08818464 11629,6917.946,95.439,540.967,538.656,0.0
52451.0,STARLINK-3870,PAYLOAD,2022-07-19 22:00:00,15.08828034,0.0001568,53.2147,274.2091,49.9648,204.6101,0.0031384,0.00049998,0.0,0 STARLINK-3870,1 52451U 22049A   22200.91667824  .00049998  00000-0  31384-2 0  9993,2 52451  53.2147 274.2091 0001568  49.9648 204.6101 15.08828034  1303,6917.917,95.438,540.867,538.697,0.0
52451.0,STARLINK-3870,PAYLOAD,2022-07-20 14:00:01,15.08839363,0.0001678,53.2134,271.2182,48.5979,229.1994,0.0009134,0.00014278,0.0,0 STARLINK-3870,1 52451U 22049A   22201.58334491  .00014278  00000-0  91340-3 0  9990,2 52451  53.2134 271.2182 0001678  48.5979 229.1994 15.08839363  1300,6917.882,95.438,540.908,538.587,0.0
52451.0,STARLINK-3870,PAYLOAD,2022-07-20 22:00:01,15.08837573,0.0001588999999999,53.2136,269.7202,51.8914,237.5705,-0.00089366,-0.00014482,0.0,0 STARLINK-3870,1 52451U 22049A   22201.91668981 -.00014482  00000-0 -89366-3 0  9995,2 52451  53.2136 269.7202 0001589  51.8914 237.5705 15.08837573  1308,6917.888000000001,95.438,540.852,538.654,0.0
52451.0,STARLINK-3870,PAYLOAD,2022-07-21 06:00:00,15.08856629,0.0001554,53.2138,268.2235,56.0611,244.9136,-0.0025544,-0.0004073,0.0,0 STARLINK-3870,1 52451U 22049A   22202.25001157 -.00040730  00000-0 -25544-2 0  9991,2 52451  53.2138 268.2235 0001554  56.0611 244.9136 15.08856629 11879,6917.83,95.437,540.77,538.62,0.0
52451.0,STARLINK-3870,PAYLOAD,2022-07-21 14:00:01,15.08795016,0.0001689,53.2139,266.7286,47.1693,265.4672,0.0021850999999999,0.00034616,0.0,0 STARLINK-3870,1 52451U 22049A   22202.58335648  .00034616  00000-0  21851-2 0  9993,2 52451  53.2139 266.7286 0001689  47.1693 265.4672 15.08795016  1301,6918.018,95.44,541.0509999999998,538.714,0.0
52451.0,STARLINK-3870,PAYLOAD,2022-07-21 22:00:00,15.08819352,0.0001538,53.214,265.2307,50.218,273.9143,-0.00039746,-6.604e-05,0.0,0 STARLINK-3870,1 52451U 22049A   22202.91667824 -.00006604  00000-0 -39746-3 0  9995,2 52451  53.2140 265.2307 0001538  50.2180 273.9143 15.08819352  1307,6917.944,95.439,540.872,538.745,0.0
52451.0,STARLINK-3870,PAYLOAD,2022-07-22 06:00:00,15.08835843,0.000153,53.2143,263.7343,53.5123,282.1825,-0.00054795,-8.997e-05,0.0,0 STARLINK-3870,1 52451U 22049A   22203.25001157 -.00008997  00000-0 -54795-3 0  9992,2 52451  53.2143 263.7343 0001530  53.5123 282.1825 15.08835843 12021,6917.893,95.438,540.817,538.7,0.0
52451.0,STARLINK-3870,PAYLOAD,2022-07-22 22:00:00,15.08837072,0.0001535,53.2141,260.7414,50.877,308.0014,0.00029543,4.417e-05,0.0,0 STARLINK-3870,1 52451U 22049A   22203.91667824  .00004417  00000-0  29543-3 0  9998,2 52451  53.2141 260.7414 0001535  50.8770 308.0014 15.08837072  1301,6917.889,95.438,540.816,538.692,0.0
52451.0,STARLINK-3870,PAYLOAD,2022-07-23 08:00:01,15.08864392,0.0001591,53.2147,258.8716,50.5689,52.8024,-0.0015617,-0.00025073,0.0,0 STARLINK-3870,1 52451U 22049A   22204.33334491 -.00025073  00000-0 -15617-2 0  9995,2 52451  53.2147 258.8716 0001591  50.5689  52.8024 15.08864392 12186,6917.806,95.436,540.771,538.57,0.0
52451.0,STARLINK-3870,PAYLOAD,2022-07-23 14:00:01,15.08827504,0.0001678,53.2139,257.7501,46.6894,335.4523,0.0027938,0.00044441,0.0,0 STARLINK-3870,1 52451U 22049A   22204.58335648  .00044441  00000-0  27938-2 0  9994,2 52451  53.2139 257.7501 0001678  46.6894 335.4523 15.08827504  1307,6917.919,95.438,540.944,538.623,0.0
52451.0,STARLINK-3870,PAYLOAD,2022-07-23 22:00:00,15.08847059,0.0001506,53.2138,256.252,51.8272,341.8564,0.00087444,0.00013659,0.0,0 STARLINK-3870,1 52451U 22049A   22204.91667824  .00013659  00000-0  87444-3 0  9991,2 52451  53.2138 256.2520 0001506  51.8272 341.8564 15.08847059  1302,6917.859,95.437,540.766,538.682,0.0
